NAVSTAR 43 (USA 132)    
1 24876U 97035A   23284.98994674  .00000069  00000+0  00000+0 0  9999
2 24876  55.5966 136.8731 0074077  53.1225 307.6547  2.00564466192318
NAVSTAR 47 (USA 150)    
1 26360U 00025A   23285.36230007 -.00000038  00000+0  00000+0 0  9995
2 26360  54.4654  59.0464 0041795 201.4455 157.9368  2.00568238171633
NAVSTAR 51 (USA 166)    
1 27663U 03005A   23285.62207248 -.00000014  00000+0  00000+0 0  9997
2 27663  55.2268 253.8872 0133272  44.8859 121.1684  2.00563851151689
NAVSTAR 52 (USA 168)    
1 27704U 03010A   23285.60901721 -.00000095  00000+0  00000+0 0  9993
2 27704  55.1152   3.8266 0249918 319.6414  56.6653  2.00576937150485
NAVSTAR 54 (USA 177)    
1 28190U 04009A   23285.63381924 -.00000036  00000+0  00000+0 0  9997
2 28190  55.6610 314.9458 0092444 140.3454 190.7094  2.00566261143313
NAVSTAR 56 (USA 180)    
1 28474U 04045A   23285.62374751 -.00000094  00000+0  00000+0 0  9995
2 28474  55.4426   4.1606 0163241 283.4114  94.5727  2.00556261138801
ANIK F1R                
1 28868U 05036A   23285.61507472 -.00000068  00000+0  00000+0 0  9991
2 28868   1.7858  88.5117 0001601  83.4328 323.1533  1.00273323 36649
NAVSTAR 57 (USA 183)    
1 28874U 05038A   23285.59027823 -.00000032  00000+0  00000+0 0  9995
2 28874  55.7116 312.4005 0140301 280.1998  41.9664  2.00572999132208
INMARSAT 4-F2           
1 28899U 05044A   23278.94424344 -.00000024  00000+0  00000+0 0  9990
2 28899   3.8913  40.9277 0006145  43.1630 334.3200  1.00395805 65629
NAVSTAR 58 (USA 190)    
1 29486U 06042A   23285.57172736  .00000004  00000+0  00000+0 0  9991
2 29486  54.6807 190.1408 0103994  33.4215 176.4496  2.00567784124764
NAVSTAR 59 (USA 192)    
1 29601U 06052A   23285.20430444 -.00000015  00000+0  00000+0 0  9997
2 29601  55.2491 252.8656 0083855  79.4740 281.4459  2.00551600123772
NAVSTAR 60 (USA 196)    
1 32260U 07047A   23285.51877313  .00000068  00000+0  00000+0 0  9998
2 32260  53.4830 120.5575 0152548  71.5890 290.1495  2.00549768117187
COSMOS 2433             
1 32275U 07052A   23284.10394206 -.00000066  00000+0  00000+0 0  9998
2 32275  66.0116 348.7133 0004858 234.6763 125.3432  2.13104232124179
COSMOS 2432             
1 32276U 07052B   23285.60719303 -.00000058  00000+0  00000+0 0  9995
2 32276  66.0257 348.7727 0009451 312.7347  67.4713  2.13103360124231
NAVSTAR 61 (USA 199)    
1 32384U 07062A   23283.36408017 -.00000035  00000+0  00000+0 0  9999
2 32384  55.8462 313.3155 0024504 152.0753 223.3817  2.00560720115848
COSMOS 2434             
1 32393U 07065A   23285.42202306 -.00000012  00000+0  00000+0 0  9999
2 32393  64.3332 225.0124 0001538  68.1499 114.3594  2.13103114122911
COSMOS 2436             
1 32395U 07065C   23284.75004657 -.00000017  00000+0  00000+0 0  9990
2 32395  64.3419 225.0972 0016194 357.1573 165.3034  2.13102769122851
NAVSTAR 62 (USA 201)    
1 32711U 08012A   23285.43163321  .00000003  00000+0  00000+0 0  9999
2 32711  54.4487 188.9685 0177750 236.0851 122.2612  2.00558519114125
NAVSTAR 64 (USA 206)    
1 35752U 09043A   23285.41282999 -.00000020  00000+0  00000+0 0  9993
2 35752  55.4670  66.1974 0057693  70.0039 292.8741  2.00555889103732
COSMOS 2456             
1 36111U 09070A   23285.44813200  .00000079  00000+0  00000+0 0  9994
2 36111  64.5068 104.4972 0001331 339.3845  21.7785  2.13099214107574
COSMOS 2457             
1 36112U 09070B   23284.87591088  .00000079  00000+0  00000+0 0  9998
2 36112  64.4909 104.3813 0006498 147.1859 266.0759  2.13101403107568
COSMOS 2460             
1 36402U 10007C   23285.37318677 -.00000057  00000+0  00000+0 0  9996
2 36402  65.8729 347.3801 0001990 227.7581 195.8317  2.13106394105875
NAVSTAR 65 (USA 213)    
1 36585U 10022A   23285.48321851 -.00000018  00000+0  00000+0 0  9992
2 36585  54.5492 248.0463 0110688  59.7073 111.4871  2.00563962 97967
BEIDOU-2 IGSO-1         
1 36828U 10036A   23285.40091972 -.00000104  00000+0  00000+0 0  9993
2 36828  54.2331 171.8233 0037615 192.0426 265.7708  1.00299615 48390
QZS-1 (MICHIBIKI-1)     
1 37158U 10045A   23285.47333271  .00000055  00000+0  00000+0 0  9992
2 37158  42.9200 127.2382 0003794 103.4869 258.3322  0.87715891 47813
BEIDOU-2 G4             
1 37210U 10057A   23285.47831918 -.00000107  00000+0  00000+0 0  9994
2 37210   1.2605  62.4935 0007201 163.9513 126.5703  1.00272882 47472
BEIDOU-2 IGSO-2         
1 37256U 10068A   23285.59810925 -.00000184  00000+0  00000+0 0  9999
2 37256  49.3421 283.8408 0031809 214.0490 206.7458  1.00271826 46988
BEIDOU-2 IGSO-3         
1 37384U 11013A   23285.26930054 -.00000176  00000+0  00000+0 0  9993
2 37384  60.9957  49.5291 0028359 177.4101 358.7163  1.00272419 45841
GSAT-8                  
1 37605U 11022A   23285.54979998  .00000088  00000+0  00000+0 0  9991
2 37605   0.0471  55.5564 0007076 197.9201  20.4240  1.00273787 43402
NAVSTAR 66 (USA 232)    
1 37753U 11036A   23285.60136806 -.00000095  00000+0  00000+0 0  9999
2 37753  56.7481   9.9849 0126855  56.3469 286.5948  2.00569024 89644
BEIDOU-2 IGSO-4         
1 37763U 11038A   23284.78022939 -.00000074  00000+0  00000+0 0  9998
2 37763  54.5065 174.3803 0111815 227.6516 354.0484  1.00266734 44820
GSAT0101 (GALILEO-PFM)  
1 37846U 11060A   23284.83818171 -.00000095  00000+0  00000+0 0  9995
2 37846  57.1128   8.2849 0000417  40.9336 319.1064  1.70476083 74429
GSAT0102 (GALILEO-FM2)  
1 37847U 11060B   23285.34325260 -.00000093  00000+0  00000+0 0  9993
2 37847  57.1136   8.2710 0002140 301.4711  54.7330  1.70475494 74437
COSMOS 2476             
1 37867U 11064A   23285.31898522  .00000082  00000+0  00000+0 0  9999
2 37867  64.7859 106.0432 0021326 230.2086 301.5152  2.13101804 92900
COSMOS 2477             
1 37868U 11064B   23284.87032061  .00000082  00000+0  00000+0 0  9998
2 37868  64.7938 106.1286 0018530 230.3178 135.0740  2.13101658 92903
COSMOS 2475             
1 37869U 11064C   23284.91339587  .00000082  00000+0  00000+0 0  9997
2 37869  64.8002 106.1395 0022458 248.8781 108.0810  2.13101987 92897
BEIDOU-2 IGSO-5         
1 37948U 11073A   23285.63657667 -.00000133  00000+0  00000+0 0  9995
2 37948  49.4680 283.5101 0094710 221.0488 200.6776  1.00264133 43320
LUCH-5A                 
1 37951U 11074B   23285.55932803 -.00000038  00000+0  00000+0 0  9993
2 37951   6.2399  89.0347 0004133  96.9405 203.1830  1.00272186 43237
BEIDOU-2 G5             
1 38091U 12008A   23285.62321431  .00000063  00000+0  00000+0 0  9991
2 38091   1.7996  68.9914 0005598 181.5408  53.4612  1.00273485 42553
BEIDOU-2 M3             
1 38250U 12018A   23285.32229635 -.00000071  00000+0  00000+0 0  9999
2 38250  56.4901 337.6145 0024801 257.6170 102.1756  1.86231316 77712
BEIDOU-2 M4             
1 38251U 12018B   23285.25357584 -.00000071  00000+0  00000+0 0  9997
2 38251  56.4004 336.9071 0015689 258.2605 101.6337  1.86232032 77716
SES-5                   
1 38652U 12036A   23285.32003472  .00000037  00000+0  00000+0 0  9995
2 38652   0.0498 300.0903 0001844 262.2448 298.5111  1.00271447 34670
BEIDOU-2 M6             
1 38775U 12050B   23284.96333615  .00000050  00000+0  00000+0 0  9996
2 38775  55.7207  95.5056 0010742 339.8480  20.1511  1.86231294 75072
GSAT-10                 
1 38779U 12051B   23285.59774630 -.00000161  00000+0  00000+0 0  9991
2 38779   0.0503  94.2246 0003356 159.0963  65.8185  1.00272221 40308
NAVSTAR 67 (USA 239)    
1 38833U 12053A   23285.10840345  .00000005  00000+0  00000+0 0  9994
2 38833  53.5101 183.6497 0144487  52.7241 308.6412  2.00567935 79804
GSAT0103 (GALILEO-FM3)  
1 38857U 12055A   23283.11762688  .00000052  00000+0  00000+0 0  9996
2 38857  55.2966 128.5084 0002104 248.3287 111.7447  1.70473826 68282
GSAT0104 (GALILEO-FM4)  
1 38858U 12055B   23284.26020495  .00000061  00000+0  00000+0 0  9997
2 38858  55.2970 128.4784 0001093 142.2357 217.8719  1.70474064 68410
BEIDOU-2 G6             
1 38953U 12059A   23285.48105001 -.00000170  00000+0  00000+0 0  9991
2 38953   1.9214  81.7686 0006835 301.1543 255.1152  1.00270706 40099
LUCH-5B                 
1 38977U 12061A   23285.17244439 -.00000126  00000+0  00000+0 0  9996
2 38977   8.3392  58.8034 0005498 129.1567 238.3221  1.00273419 39804
COSMOS 2485             
1 39155U 13019A   23284.09859193  .00000083  00000+0  00000+0 0  9999
2 39155  64.9452 106.6162 0021864 226.2323 133.6464  2.13101963 81392
NAVSTAR 68 (USA 242)    
1 39166U 13023A   23284.97150190 -.00000029  00000+0  00000+0 0  9995
2 39166  55.3270 308.6060 0115134  41.5719 319.3533  2.00564335 76237
IRNSS-1A                
1 39199U 13034A   23285.00813442  .00000111  00000+0  00000+0 0  9995
2 39199  33.5121  78.1314 0021312 180.2649 179.9760  1.00277493 37553
NAVSTAR 69 (USA 248)    
1 39533U 14008A   23285.47050043  .00000003  00000+0  00000+0 0  9990
2 39533  53.5966 189.1980 0067061 215.5111 144.0889  2.00553901 70052
ASTRA 5B                
1 39617U 14011B   23285.53863552  .00000141  00000+0  00000+0 0  9994
2 39617   0.0731 305.5994 0003494 275.8442  16.8199  1.00272936 34850
COSMOS 2492             
1 39620U 14012A   23285.46188693 -.00000057  00000+0  00000+0 0  9994
2 39620  65.7563 346.9901 0012615 311.5339  48.4289  2.13103255 74385
IRNSS-1B                
1 39635U 14017A   23285.00813442  .00000089  00000+0  00000+0 0  9996
2 39635  28.6316 257.0326 0018702 190.6731 350.6579  1.00276744 34973
LUCH-5V                 
1 39727U 14023A   23285.57929855 -.00000261  00000+0  00000+0 0  9996
2 39727   2.6693  77.1137 0004137 157.4233  89.5849  1.00267973 34546
NAVSTAR 70 (USA 251)    
1 39741U 14026A   23285.25349231 -.00000097  00000+0  00000+0 0  9991
2 39741  56.7000   9.5203 0030234 309.6513  50.1200  2.00554623 68900
COSMOS 2500             
1 40001U 14032A   23284.70615641 -.00000061  00000+0  00000+0 0  9990
2 40001  65.6947 346.8400 0008545 208.9268 151.0941  2.13106157 72585
NAVSTAR 71 (USA 256)    
1 40105U 14045A   23285.33676163  .00000073  00000+0  00000+0 0  9997
2 40105  54.8273 127.5531 0027126 114.3331 246.0426  2.00549553 66446
